2022-109E               
1 53764U 22109E   22250.48664002 -.00000037  00000+0  00000+0 0  9999
2 53764  34.9973  17.3109 0009542 276.8249 163.7110 15.23196203   169
NOAA 1 [-]              
1 04793U 70106A   22249.78921112 -.00000046  00000+0 -11856-4 0  9993
2 04793 101.5500 311.5294 0031880 163.3886 311.7810 12.54007165367780
NOAA 2 (ITOS-D) [-]     
1 06235U 72082A   22249.97314112 -.00000020  00000+0  16649-3 0  9993
2 06235 101.9609 232.7344 0003697 282.8134 144.7823 12.53151082282416
NOAA 3 [-]              
1 06920U 73086A   22249.84778517 -.00000018  00000+0  20854-3 0  9998
2 06920 102.2148 231.6433 0006554 137.3490 282.7689 12.40348099210887
NOAA 4 [-]              
1 07529U 74089A   22249.79184942 -.00000016  00000+0  18993-3 0  9994
2 07529 101.9212 229.6876 0008807 311.0978 114.5409 12.53159881186735
NOAA 5 [-]              
1 09057U 76077A   22249.78694207 -.00000020  00000+0  19554-3 0  9999
2 09057 102.1063 216.9303 0010073 351.6807  72.0333 12.37774066 83801
TIROS N [-]             
1 11060U 78096A   22249.75208154  .00000090  00000+0  64338-4 0  9995
2 11060  98.6285 301.3130 0009446 268.9531  91.0563 14.18409623483137
NOAA 6 [-]              
1 11416U 79057A   22249.63333416  .00000179  00000+0  80460-4 0  9997
2 11416  98.6650 260.6168 0010804  25.4807 334.6908 14.33791908253151
NOAA 7 [-]              
1 12553U 81059A   22249.76681587  .00000000  00000+0  22595-4 0  9992
2 12553  98.9924 295.1661 0010589 242.1641 117.8460 14.17341920129317
NOAA 8 [-]              
1 13923U 83022A   22250.00873797  .00000099  00000+0  57076-4 0  9991
2 13923  98.6930 240.2557 0014648 335.3091  24.7388 14.28827796 54316
NOAA 9 [-]              
1 15427U 84123A   22249.90968877  .00000086  00000+0  66703-4 0  9999
2 15427  99.0536 223.6027 0013959 296.9877 117.6579 14.16219569948371
NOAA 10 [-]             
1 16969U 86073A   22249.74101821  .00000081  00000+0  49709-4 0  9999
2 16969  98.5748 234.4225 0013429  75.6269  98.9131 14.28217546872435
NOAA 11 [-]             
1 19531U 88089A   22249.71312650  .00000043  00000+0  42847-4 0  9991
2 19531  98.4312 234.3542 0010227 308.8198  51.2063 14.15320165752313
NOAA 12 [-]             
1 21263U 91032A   22249.81490379  .00000054  00000+0  40426-4 0  9997
2 21263  98.5184 247.3693 0014845 100.4810 259.8044 14.26007666628322
NOAA 13 [-]             
1 22739U 93050A   22249.81717102  .00000053  00000+0  50645-4 0  9997
2 22739  98.5126 225.5885 0010614 107.9854 252.2477 14.12858659498545
NOAA 14 [-]             
1 23455U 94089A   22249.84795181  .00000027  00000+0  35482-4 0  9995
2 23455  98.4452 272.1389 0010692  90.7672 269.4727 14.14207075428219
NOAA 15 [B]             
1 25338U 98030A   22250.50531716  .00000111  00000+0  64412-4 0  9993
2 25338  98.6401 278.9504 0011359  62.1214 298.1116 14.26167745264969
NOAA 16 [-]             
1 26536U 00055A   22249.81068455  .00000034  00000+0  40782-4 0  9999
2 26536  98.6294 305.8782 0009438 296.0279  63.9922 14.13341150428844
NOAA 17 [-]             
1 27453U 02032A   22250.50681424  .00000045  00000+0  38043-4 0  9999
2 27453  98.6762 194.8281 0012611  37.6813 322.5248 14.25138036 50557
NOAA 18 [B]             
1 28654U 05018A   22250.43163526  .00000119  00000+0  87805-4 0  9992
2 28654  98.9435 320.7818 0015331  99.9963 260.2940 14.12772259891643
NOAA 19 [+]             
1 33591U 09005A   22250.51299786  .00000125  00000+0  92572-4 0  9999
2 33591  99.1426 286.3517 0013191 320.8337  39.1878 14.12605872700039
SUOMI NPP [+]           
1 37849U 11061A   22250.52638178  .00000043  00000+0  41071-4 0  9994
2 37849  98.7351 187.9508 0001235  80.6952 339.5381 14.19541509562830
NOAA 20 [+]             
1 43013U 17073A   22250.33764133  .00000037  00000+0  38242-4 0  9992
2 43013  98.7190 187.6218 0001160 112.0882 248.0417 14.19541508248840
CELESTIS-02             
1 25160U 98007D   22249.73125970 -.00000029  00000+0  44887-4 0  9997
2 25160 107.9914  70.4168 0063532 329.6514  40.8910 14.21642828274410
CELESTIS-03             
1 26034U 99070C   22249.80886027  .00017355  00000+0  78302-3 0  9991
2 26034  98.3123 264.0015 0009158 198.3911 161.6992 15.21053191233433
O3B FM5                 
1 39188U 13031A   22249.03308273 -.00000023  00000+0  00000+0 0  9996
2 39188   0.0596  19.5209 0002586 148.7582 191.7272  5.00115232167993
O3B FM4                 
1 39189U 13031B   22249.48890197 -.00000024  00000+0  00000+0 0  9998
2 39189   0.0543 351.5761 0002548 176.7994 191.6304  5.00115758168038
O3B FM2                 
1 39190U 13031C   22249.38044649 -.00000023  00000+0  00000+0 0  9991
2 39190   0.0558 346.5693 0002578 180.9176 192.5196  5.00116779168084
O3B PFM                 
1 39191U 13031D   22249.60661186 -.00000024  00000+0  00000+0 0  9999
2 39191   0.0551  11.5525 0002647 154.4826 193.9722  5.00115604167643
O3B FM3                 
1 40079U 14038A   22249.66137591 -.00000024  00000+0  00000+0 0  9998
2 40079   0.0550 359.6206 0004962 156.3199 204.0827  5.00115288144022
O3B FM7                 
1 40080U 14038B   22249.40755692 -.00000023  00000+0  00000+0 0  9999
2 40080   0.0582 356.5407 0001453 213.2662 150.1849  5.00115403148857
O3B FM6                 
1 40081U 14038C   22248.23458987 -.00000021  00000+0  00000+0 0  9995
2 40081   0.0542 358.9449 0002687 166.1014 194.9626  5.00115321148749
O3B FM8                 
1 40082U 14038D   22249.48786601 -.00000024  00000+0  00000+0 0  9994
2 40082   0.0530 355.7675 0002656 167.6217 196.6195  5.00115610148921
O3B FM10                
1 40348U 14083A   22249.31402029 -.00000023  00000+0  00000+0 0  9999
2 40348   0.0510   8.1427 0002622 157.7951 194.0697  5.00115084140865
O3B FM11                
1 40349U 14083B   22249.72726214 -.00000024  00000+0  00000+0 0  9991
2 40349   0.0558   8.2257 0002402 172.9063 178.8674  5.00115337140898
O3B FM12                
1 40350U 14083C   22249.15479569 -.00000023  00000+0  00000+0 0  9997
2 40350   0.0552   7.4823 0002724 161.6883 190.8355  5.00115203140887
O3B FM9                 
1 40351U 14083D   22249.58148950 -.00000024  00000+0  00000+0 0  9993
2 40351   0.0568   8.6642 0002586 158.7175 192.6248  5.00116073141051
DIAMOND RED             
1 42783U 17036U   22250.04688355  .00009004  00000+0  32578-3 0  9991
2 42783  97.1941 288.0687 0011393  48.3928 311.8287 15.28578879289400
DIAMOND GREEN           
1 42785U 17036W   22249.65462397  .00009773  00000+0  35373-3 0  9993
2 42785  97.1947 287.7529 0011253  51.2366 308.9878 15.28545367289413
DIAMOND BLUE            
1 42786U 17036X   22249.06446379  .00010290  00000+0  37242-3 0  9994
2 42786  97.1946 287.1746 0011400  53.2376 306.9909 15.28530922289329
LEO VANTAGE 1           
1 43113U 18004C   22249.76043796  .00001135  00000+0  98498-4 0  9997
2 43113  99.2443 338.4685 0399973 307.1432  49.3844 14.54077355236051
O3B FM15                
1 43231U 18024A   22249.44753309 -.00000024  00000+0  00000+0 0  9997
2 43231   0.0476   8.5305 0002906 159.9384 191.5378  5.00115946 82172
O3B FM16                
1 43232U 18024B   22250.30048066 -.00000025  00000+0  00000+0 0  9993
2 43232   0.0437  10.4088 0002882 159.1753 190.4215  5.00115800 82206
O3B FM14                
1 43233U 18024C   22249.34065290 -.00000023  00000+0  00000+0 0  9992
2 43233   0.0421  10.1812 0002710 160.3140 189.5101  5.00115209 81920
O3B FM13                
1 43234U 18024D   22249.79393954 -.00000024  00000+0  00000+0 0  9994
2 43234   0.0548  31.8993 0003641 144.0872 184.0163  5.00115016 82066
O3B FM20                
1 44112U 19020A   22249.76714764 -.00000024  00000+0  00000+0 0  9990
2 44112   0.0508   7.3258 0003010 168.2050 184.4717  5.00115396 62558
O3B FM19                
1 44113U 19020B   22250.39361240 -.00000026  00000+0  00000+0 0  9991
2 44113   0.0682  24.0791 0001461 158.1139 177.8059  5.00114898 62667
O3B FM17                
1 44114U 19020C   22249.67456919 -.00000024  00000+0  00000+0 0  9997
2 44114   0.0388 347.0104 0003019 181.8857 191.1105  5.00115482 62513
O3B FM18                
1 44115U 19020D   22250.22076301 -.00000025  00000+0  00000+0 0  9995
2 44115   0.0511   7.7636 0002877 158.5524 193.6914  5.00115698 62654
SALSAT                  
1 46495U 20068K   22249.82781829  .00002270  00000+0  16493-3 0  9994
2 46495  97.7333 191.1841 0016664   9.2567 350.8962 15.04792874106422
ISS (ZARYA)             
1 25544U 98067A   22250.54437684  .00007705  00000+0  14244-3 0  9998
2 25544  51.6443 288.5776 0002681 203.1974 321.9977 15.50083909357958
AEROCUBE 12A            
1 43556U 18046C   22249.91208456  .00023299  00000+0  54661-3 0  9995
2 43556  51.6367 145.9751 0005559 338.9132  21.1623 15.41927611231871
AEROCUBE 12B            
1 43557U 18046D   22249.96644614  .00015040  00000+0  38794-3 0  9995
2 43557  51.6371 151.5073 0005898 335.3830  24.6872 15.39361513231750
LEMUR-2-VU              
1 43558U 18046E   22250.48559046  .00036896  00000+0  61469-3 0  9996
2 43558  51.6367 120.2956 0004758 344.6493  15.4352 15.51630002232265
LEMUR-2-ALEXANDER       
1 43559U 18046F   22249.80487810  .00058488  00000+0  90363-3 0  9996
2 43559  51.6362 121.0340 0003550   4.8171 355.2853 15.53527491231971
LEMUR-2-YUASA           
1 43560U 18046G   22250.04985054  .00059832  00000+0  95714-3 0  9998
2 43560  51.6377 122.6447 0003976  14.3085 345.8017 15.52551959232193
LEMUR-2-TOMHENDERSON    
1 43561U 18046H   22250.21711716  .00040328  00000+0  72029-3 0  9994
2 43561  51.6379 125.9645 0004361  10.7897 349.3185 15.49624360231728
ISS DEB (SEDA-AP)       
1 43870U 98067PU  22250.18949333  .00364727  73617-4  46360-3 0  9992
2 43870  51.6234 158.8573 0002908 189.5998 170.4959 16.06829091211944
STPSAT-4                
1 45043U 98067QY  22250.40124281  .00215892  28990-4  58397-3 0  9993
2 45043  51.6293 229.9827 0003786  89.2285 270.9156 15.93844601148487
